[{"OBJECT_NAME":"STARLINK-34665","OBJECT_ID":"2025-167M","EPOCH":"2026-03-09T06:45:12.102912","MEAN_MOTION":15.30202424,"ECCENTRICITY":0.00010625,"INCLINATION":53.1613,"RA_OF_ASC_NODE":28.8152,"ARG_OF_PERICENTER":70.3211,"MEAN_ANOMALY":289.7905,"EPHEMERIS_TYPE":0,"CLASSIFICATION_TYPE":"U","NORAD_CAT_ID":65089,"ELEMENT_SET_NO":999,"REV_AT_EPOCH":3341,"BSTAR":0.0004399694,"MEAN_MOTION_DOT":0.00012695,"MEAN_MOTION_DDOT":0},{"OBJECT_NAME":"CZ-6A DEB","OBJECT_ID":"2022-151DE","EPOCH":"2026-03-09T09:45:43.657920","MEAN_MOTION":15.34292219,"ECCENTRICITY":0.00393756,"INCLINATION":99.0022,"RA_OF_ASC_NODE":218.5596,"ARG_OF_PERICENTER":192.6197,"MEAN_ANOMALY":167.4059,"EPHEMERIS_TYPE":0,"CLASSIFICATION_TYPE":"U","NORAD_CAT_ID":54359,"ELEMENT_SET_NO":999,"REV_AT_EPOCH":10560,"BSTAR":0.0065240017,"MEAN_MOTION_DOT":0.00228186,"MEAN_MOTION_DDOT":0}]
